[{"OBJECT_NAME":"STARLINK-4020","OBJECT_ID":"2022-053AZ","EPOCH":"2026-03-09T11:25:22.360800","MEAN_MOTION":15.08833448,"ECCENTRICITY":0.00013167,"INCLINATION":53.2167,"RA_OF_ASC_NODE":135.092,"ARG_OF_PERICENTER":101.7378,"MEAN_ANOMALY":258.3762,"EPHEMERIS_TYPE":0,"CLASSIFICATION_TYPE":"U","NORAD_CAT_ID":52703,"ELEMENT_SET_NO":999,"REV_AT_EPOCH":21000,"BSTAR":-3.5370036e-5,"MEAN_MOTION_DOT":-8.51e-6,"MEAN_MOTION_DDOT":0},{"OBJECT_NAME":"OBJECT H","OBJECT_ID":"2025-292H","EPOCH":"2026-03-09T22:24:53.558208","MEAN_MOTION":15.06373042,"ECCENTRICITY":0.00142604,"INCLINATION":97.6442,"RA_OF_ASC_NODE":145.7846,"ARG_OF_PERICENTER":348.9217,"MEAN_ANOMALY":11.1694,"EPHEMERIS_TYPE":0,"CLASSIFICATION_TYPE":"U","NORAD_CAT_ID":67000,"ELEMENT_SET_NO":999,"REV_AT_EPOCH":1338,"BSTAR":0.0005462937,"MEAN_MOTION_DOT":8.001e-5,"MEAN_MOTION_DDOT":0}]
